OBJECT_NAME,OBJECT_ID,EPOCH,MEAN_MOTION,ECCENTRICITY,INCLINATION,RA_OF_ASC_NODE,ARG_OF_PERICENTER,MEAN_ANOMALY,EPHEMERIS_TYPE,CLASSIFICATION_TYPE,NORAD_CAT_ID,ELEMENT_SET_NO,REV_AT_EPOCH,BSTAR,MEAN_MOTION_DOT,MEAN_MOTION_DDOT
GOMX-1,2013-066Q,2026-06-10T12:18:21.769344,14.69434061,.013016,97.6495,2.3968,98.7213,262.8761,0,U,39430,999,66893,.23248E-3,.1517E-4,0
CUBEBUG-2 (LO-74),2013-066AA,2026-06-10T02:18:58.118400,14.93705686,.00590877,97.8902,110.0449,51.9853,308.6680,0,U,39440,999,67593,.32201289E-3,.3464E-4,0
NEE-02 KRYSAOR,2013-066AB,2026-06-10T01:47:15.883296,14.86588167,.00677449,97.8886,100.3401,92.9703,267.9268,0,U,39441,999,67514,.19962884E-3,.1787E-4,0
FUNCUBE-1 (AO-73),2013-066AE,2026-06-10T11:50:58.195104,15.09407831,.0034999,97.8263,132.7998,224.2393,135.6036,0,U,39444,999,67865,.31555E-3,.5047E-4,0
UWE-3,2013-066AG,2026-06-10T03:07:52.062816,14.96967920,.00486625,97.8685,117.1571,344.7844,15.1910,0,U,39446,999,67652,.3417145E-3,.3961E-4,0
SMDC ONE 2.4,2013-072H,2026-06-10T11:37:33.653856,15.18055669,.0144362,120.4932,326.2073,11.8868,348.5561,0,U,39469,999,11681,.33538E-3,.8639E-4,0
COSMOS 2488 (RODNIK-S 7),2013-076A,2026-06-10T12:25:25.608000,12.42905426,.0020781,82.4835,172.8505,109.0153,251.3180,0,U,39483,999,56506,.4595E-4,.16E-6,0
COSMOS 2489 (RODNIK-S 8),2013-076B,2026-06-10T11:49:30.742752,12.42879284,.0022609,82.4872,174.2425,109.1309,251.2221,0,U,39484,999,56511,-.78224E-4,-.1E-7,0
COSMOS 2490 (RODNIK-S 9),2013-076C,2026-06-10T13:04:56.080128,12.42877901,.002259,82.4818,172.2802,123.9983,236.3246,0,U,39485,999,56505,.24203E-3,.44E-6,0
KAZEOSAT 1,2014-024A,2026-06-10T11:59:19.680576,14.42078161,.0001466,98.3204,234.1131,76.4111,283.7242,0,U,39731,999,63759,.11325E-3,.329E-5,0
COSMOS 2496 (RODNIK-S 10),2014-028A,2026-06-10T12:03:47.326176,12.42878501,.0021286,82.4442,112.9176,92.6218,267.7299,0,U,39761,999,54668,.40558E-3,.66E-6,0
COSMOS 2497 (RODNIK-S 11),2014-028B,2026-06-10T13:24:13.847904,12.42894044,.0021868,82.4489,114.5697,87.7627,272.5956,0,U,39762,999,54669,.26534E-3,.47E-6,0
COSMOS 2498 (RODNIK-S 12),2014-028C,2026-06-10T12:52:38.255232,12.42980156,.0022557,82.4451,113.0735,87.4238,272.9424,0,U,39763,999,54672,.3494E-3,.58E-6,0
HODOYOSHI-4,2014-033B,2026-06-10T12:16:56.159040,14.88110227,.0023046,97.5457,346.6567,331.2928,28.7020,0,U,40011,999,64781,.55445E-4,.46E-5,0
UNISAT-6,2014-033C,2026-06-10T08:13:14.687040,14.88209392,.0046427,97.7868,314.1760,91.2128,269.4408,0,U,40012,999,64514,.26042E-3,.2394E-4,0
DEIMOS-2,2014-033D,2026-06-10T13:13:49.770336,14.93711812,.0001991,97.5844,36.2729,58.4165,301.7250,0,U,40013,999,63673,.15619E-3,.1598E-4,0
BUGSAT-1 (TITA),2014-033E,2026-06-10T13:34:50.384352,15.15513138,.0027561,98.0421,253.7278,200.7629,159.2485,0,U,40014,999,65483,.23889E-3,.4491E-4,0
SAUDISAT 4,2014-033G,2026-06-10T06:55:04.308384,14.79535246,.0046239,97.7575,307.6620,95.7410,264.9076,0,U,40016,999,64505,.90933E-4,.641E-5,0
APRIZESAT 9,2014-033J,2026-06-10T06:49:32.504736,14.74205173,.0065227,97.9051,294.6520,221.5813,138.0425,0,U,40018,999,64254,.90385E-4,.564E-5,0
BRITE-CA1 (TORONTO),2014-033L,2026-06-10T07:28:13.581984,14.72667174,.0077388,97.9730,290.3663,299.4198,59.9301,0,U,40020,999,64120,.973E-4,.595E-5,0
DUCHIFAT-1,2014-033M,2026-06-10T10:21:09.914400,15.63249626,.0004198,98.0468,219.6499,126.9864,233.1777,0,U,40021,999,65469,.10616E-2,.98092E-3,0
NANOSATC-BR1,2014-033Q,2026-06-09T19:43:06.415392,15.31222674,.00036841,98.0733,192.5577,183.5527,176.5687,0,U,40024,999,65285,.55025603E-3,.16529E-3,0
